[{"OBJECT_NAME":"STARLINK-3813","OBJECT_ID":"2022-049AH","EPOCH":"2026-03-09T04:14:08.384352","MEAN_MOTION":15.08838651,"ECCENTRICITY":0.00013729,"INCLINATION":53.2177,"RA_OF_ASC_NODE":51.4238,"ARG_OF_PERICENTER":91.1282,"MEAN_ANOMALY":268.9867,"EPHEMERIS_TYPE":0,"CLASSIFICATION_TYPE":"U","NORAD_CAT_ID":52482,"ELEMENT_SET_NO":999,"REV_AT_EPOCH":21231,"BSTAR":3.372545e-5,"MEAN_MOTION_DOT":2.49e-6,"MEAN_MOTION_DDOT":0},{"OBJECT_NAME":"FENGYUN 1C DEB","OBJECT_ID":"1999-025CAL","EPOCH":"2026-03-09T07:00:43.678944","MEAN_MOTION":15.11095595,"ECCENTRICITY":0.01530884,"INCLINATION":98.0969,"RA_OF_ASC_NODE":245.5084,"ARG_OF_PERICENTER":64.0772,"MEAN_ANOMALY":297.6143,"EPHEMERIS_TYPE":0,"CLASSIFICATION_TYPE":"U","NORAD_CAT_ID":31630,"ELEMENT_SET_NO":999,"REV_AT_EPOCH":99895,"BSTAR":0.00096285175,"MEAN_MOTION_DOT":0.00021366,"MEAN_MOTION_DDOT":0}]
